HAWK-A                  
1 43765U 18099H   26068.67628545  .00008617  00000+0  36104-3 0  9995
2 43765  97.4051 122.2425 0034260 275.5523  84.1807 15.23231043397949
STARLINK-2545           
1 48289U 21036P   26068.31040522  .00000149  00000+0  17143-4 0  9995
2 48289  53.1594  77.4373 0001079  83.2666 276.8457 15.30209224268349
